#aV2020  5 17  0  0  0.00000000     288 DD+AD WGS84 FIT  NGA
## 2106      0.00000000   300.00000000 58986 0.0000000000000
+   32     1  2  3  4  5  6  7  8  9 10 11 12 13 14 15 16 17
+         18 19 20 21 22 23 24 25 26 27 28 29 30 31 32  0  0
+          0  0  0  0  0  0  0  0  0  0  0  0  0  0  0  0  0
+          0  0  0  0  0  0  0  0  0  0  0  0  0  0  0  0  0
+          0  0  0  0  0  0  0  0  0  0  0  0  0  0  0  0  0
++         2  2  2  2  2  2  2  2  2  2  2  2  2  2  2  2  2
++         2  2  2  2  2  2  2  2  2  2  2  2  2  2  2  0  0
++         0  0  0  0  0  0  0  0  0  0  0  0  0  0  0  0  0
++         0  0  0  0  0  0  0  0  0  0  0  0  0  0  0  0  0
++         0  0  0  0  0  0  0  0  0  0  0  0  0  0  0  0  0
%c cc cc ccc ccc cccc cccc cccc cccc ccccc ccccc ccccc ccccc
%c cc cc ccc ccc cccc cccc cccc cccc ccccc ccccc ccccc ccccc
%f  0.0000000  0.000000000  0.00000000000  0.000000000000000
%f  0.0000000  0.000000000  0.00000000000  0.000000000000000
%i    0    0    0    0      0      0      0      0         0
%i    0    0    0    0      0      0      0      0         0
/*      NGA, ST. LOUIS,MO.                                  
/*   EPHEMERIS COMPUTED FROM 2 DAYS OF DATA                 
/*   EPOCHA v5 SMOOTHER                                     
/*   G1762 IERS2010 SATAF SATAPC                            
*  2020  5 17 11 30  0.00000000
P  1 -15823.419377 -14110.432446 -16428.540580   -381.220764                    
V  1  20153.033349   2487.749507 -21513.268399     -0.061522                    
P  2  -7643.977502  14409.584896  21593.266797   -457.280655                    
V  2 -25747.734091  -3334.575006  -7158.215177     -0.062063                    
P  3 -12624.545883 -22637.252185   5982.235899   -178.510731                    
V  3   -257.724726  -8041.661496 -30571.668288     -0.122423                    
P  4  -8921.329225 -12681.475157  21574.434029    -90.469988                    
V  4  18561.466199 -20120.068364  -4183.480505     -0.050048                    
P  5   -432.610322  23178.507981  12644.778119    -12.834383                    
V  5  -8566.836549 -14204.537422  25665.417191     -0.007312                    
P  6 -18894.516976   8165.503836  16863.377173   -273.058981                    
V  6 -20689.470557  -5042.446573 -20760.871271     -0.067908                    
P  7 -26173.779289  -5823.121402   1237.103542   -283.093365                    
V  7   1650.779605  -2348.913969  31226.098266     -0.087107                    
P  8   1243.943294 -20131.662536 -17131.173810    -34.293661                    
V  8  15149.073507 -15852.880567  19963.398662     -0.012974                    
P  9 -17211.239483  -1532.175416  20128.253916   -218.942975                    
V  9  15342.294459 -20633.038866  11502.841884     -0.072948                    
P 10  14456.252867  -4349.615679 -21768.444407   -343.584955                    
V 10   9593.611605  26128.600211    915.785219     -0.115590                    
P 11  -5629.760429 -15498.670853 -21305.938775   -274.893890                    
V 11  24961.310941  -7794.130164  -1263.392269      0.106932                    
P 12  10394.004159  23957.160190   5055.053222    116.930013                    
V 12   -188.151732   7002.470372 -31176.446135     -0.044209                    
P 13 -10051.765050  21105.737457 -12637.670475     10.685187                    
V 13 -13136.713798   9181.808966  26113.879041      0.030448                    
P 14  18773.418757 -18626.623278   -391.755092    -12.394322                    
V 14   1494.661246   2763.700055 -31865.712436      0.026051                    
P 15   2010.825956  20162.256753 -17292.481154   -230.624077                    
V 15 -14084.852212  16566.698519  18386.008568      0.025944                    
P 16   1446.943656 -23733.755823  11137.646532   -159.219228                    
V 16   6006.407584  13517.112907  27922.035114     -0.045394                    
P 17 -20902.182610  13130.112548  -9322.683001    266.114478                    
V 17   7056.153568 -10430.161945 -29244.710853      0.060919                    
P 18  25838.166736   6079.764795   1205.917884    192.383409                    
V 18  -2044.856073   2343.817725  31762.349219      0.119513                    
P 19 -20160.774130  17124.567192  -2571.602803   -157.640031                    
V 19    600.901313  -3535.952685 -32017.149088      0.050764                    
P 20  18576.071677   7150.443709 -17764.720185    527.681077                    
V 20   8698.174744  20743.878604  17302.593497     -0.000704                    
P 21  26254.330473   2848.162044    -11.018091     -0.273226                    
V 21    552.013724   3379.973185  31768.948170      0.049336                    
P 22  -9001.032286 -24848.267743  -3075.575172   -782.002683                    
V 22   5059.393996   2250.416647 -30653.348938      0.012909                    
P 23 -18332.195072    -10.989504  19750.529994   -113.494712                    
V 23  14223.328679 -19578.325387  13055.718125      0.030914                    
P 24  14549.406495  14447.027608 -17269.749716    -13.143186                    
V 24 -21559.223239   -595.921048 -18512.393922     -0.004941                    
P 25  15739.211425  16948.798105  13048.300085      4.780981                    
V 25   3837.635757  16534.470933 -25374.418893      0.031021                    
P 26   8504.517068 -16041.728946  19274.043235    208.042944                    
V 26  10671.786950  22297.835253  14043.562155      0.071596                    
P 27  10736.923235 -22370.759599  -9123.589821   -296.009408                    
V 27   9129.720057  -7311.208904  29446.026382     -0.101756                    
P 28 -13644.114253   5340.385137 -21578.570406    716.696986                    
V 28  -7386.925427 -27789.997213  -2010.694637     -0.032629                    
P 29  14547.551705   5444.507472  21503.516973   -106.362426                    
V 29 -18648.261329  19990.471631   7516.207042     -0.088606                    
P 30 -24766.825406   1963.942643  -9645.102251   -221.966440                    
V 30 -11389.014222  -5459.378456  27803.157996     -0.082194                    
P 31  18198.433515  -8781.725158  17424.851948    -42.965905                    
V 31  21297.516547   5874.546605 -18790.617495     -0.025540                    
P 32  20240.146714 -14435.197443  -9057.654183    282.205565                    
V 32  -5270.923550  10784.681699 -28848.039732      0.075889                    
EOF
